[{"OBJECT_NAME":"SALSAT","OBJECT_ID":"2020-068K","EPOCH":"2026-03-09T22:26:21.804576","MEAN_MOTION":15.28191989,"ECCENTRICITY":0.00082652,"INCLINATION":97.8859,"RA_OF_ASC_NODE":66.0795,"ARG_OF_PERICENTER":295.8051,"MEAN_ANOMALY":64.2334,"EPHEMERIS_TYPE":0,"CLASSIFICATION_TYPE":"U","NORAD_CAT_ID":46495,"ELEMENT_SET_NO":999,"REV_AT_EPOCH":30019,"BSTAR":0.00040842582,"MEAN_MOTION_DOT":0.00011156,"MEAN_MOTION_DDOT":0},{"OBJECT_NAME":"OBJECT P","OBJECT_ID":"2025-155P","EPOCH":"2026-03-09T22:15:55.475424","MEAN_MOTION":15.2544775,"ECCENTRICITY":0.00080527,"INCLINATION":97.4496,"RA_OF_ASC_NODE":37.0295,"ARG_OF_PERICENTER":153.0691,"MEAN_ANOMALY":207.0966,"EPHEMERIS_TYPE":0,"CLASSIFICATION_TYPE":"U","NORAD_CAT_ID":64889,"ELEMENT_SET_NO":999,"REV_AT_EPOCH":6557,"BSTAR":0.00031377111,"MEAN_MOTION_DOT":7.871e-5,"MEAN_MOTION_DDOT":0}]
